FENGYUN 1C DEB          
1 31188U 99025BJS 17345.09062455  .00000707  00000-0  41320-3 0  9994
2 31188  98.9690  36.6174 0070085 275.0957 143.9322 14.10485243550316
